{
  "type": "FeatureCollection",
  "features": [
    {
      "type": "Feature",
      "properties": {
        "norad_id": 54741,
        "name": "GALAXY 35 (G-35)",
        "group": "intelsat",
        "lat": 0.014522507097070496,
        "lon": 85.82042697762243,
        "alt_km": 35797.34107061542,
        "timestamp": "2025-12-02T07:10:08.777604+00:00",
        "meta_object_name": "GALAXY 35 (G-35)",
        "meta_object_id": "2022-170A",
        "meta_epoch": "2025-12-01T11:39:30.005280",
        "meta_mean_motion": 1.00270479,
        "meta_eccentricity": 0.00025987,
        "meta_inclination": 0.0172,
        "meta_ra_of_asc_node": 276.7426,
        "meta_arg_of_pericenter": 339.8146,
        "meta_mean_anomaly": 255.8378,
        "meta_ephemeris_type": 0,
        "meta_classification_type": "U",
        "meta_norad_cat_id": 54741,
        "meta_element_set_no": 999,
        "meta_rev_at_epoch": 1091,
        "meta_bstar": 0,
        "meta_mean_motion_dot": -1.41e-06,
        "meta_mean_motion_ddot": 0,
        "tle_line1": "1 54741U 22170A   25335.48576395 -.00000141  00000+0  00000+0 0  9993",
        "tle_line2": "2 54741   0.0172 276.7426 0002598 339.8146 255.8378  1.00270479 10914"
      },
      "geometry": {
        "type": "Point",
        "coordinates": [
          85.82042697762243,
          0.014522507097070496
        ]
      }
    },
    {
      "type": "Feature",
      "properties": {
        "norad_id": 54742,
        "name": "GALAXY 36 (G-36)",
        "group": "intelsat",
        "lat": 0.006166333618606663,
        "lon": 89.91489592099491,
        "alt_km": 35788.474421921776,
        "timestamp": "2025-12-02T07:10:08.777615+00:00",
        "meta_object_name": "GALAXY 36 (G-36)",
        "meta_object_id": "2022-170B",
        "meta_epoch": "2025-12-01T18:31:24.714048",
        "meta_mean_motion": 1.00270061,
        "meta_eccentricity": 5.29e-05,
        "meta_inclination": 0.0213,
        "meta_ra_of_asc_node": 260.0974,
        "meta_arg_of_pericenter": 336.644,
        "meta_mean_anomaly": 23.0059,
        "meta_ephemeris_type": 0,
        "meta_classification_type": "U",
        "meta_norad_cat_id": 54742,
        "meta_element_set_no": 999,
        "meta_rev_at_epoch": 1079,
        "meta_bstar": 0,
        "meta_mean_motion_dot": -1.64e-06,
        "meta_mean_motion_ddot": 0,
        "tle_line1": "1 54742U 22170B   25335.77181382 -.00000164  00000+0  00000+0 0  9999",
        "tle_line2": "2 54742   0.0213 260.0974 0000529 336.6440  23.0059  1.00270061 10793"
      },
      "geometry": {
        "type": "Point",
        "coordinates": [
          89.91489592099491,
          0.006166333618606663
        ]
      }
    },
    {
      "type": "Feature",
      "properties": {
        "norad_id": 57493,
        "name": "GALAXY 37 (G-37)",
        "group": "intelsat",
        "lat": 0.01766661925148055,
        "lon": 51.93210315287909,
        "alt_km": 35794.92410559645,
        "timestamp": "2025-12-02T07:10:08.777627+00:00",
        "meta_object_name": "GALAXY 37 (G-37)",
        "meta_object_id": "2023-112A",
        "meta_epoch": "2025-12-01T09:47:10.762080",
        "meta_mean_motion": 1.0027212,
        "meta_eccentricity": 0.00023264,
        "meta_inclination": 0.0261,
        "meta_ra_of_asc_node": 54.096,
        "meta_arg_of_pericenter": 201.8678,
        "meta_mean_anomaly": 194.3645,
        "meta_ephemeris_type": 0,
        "meta_classification_type": "U",
        "meta_norad_cat_id": 57493,
        "meta_element_set_no": 999,
        "meta_rev_at_epoch": 856,
        "meta_bstar": 0,
        "meta_mean_motion_dot": 6.9e-07,
        "meta_mean_motion_ddot": 0,
        "tle_line1": "1 57493U 23112A   25335.40776345  .00000069  00000+0  00000+0 0  9994",
        "tle_line2": "2 57493   0.0261  54.0960 0002326 201.8678 194.3645  1.00272120  8564"
      },
      "geometry": {
        "type": "Point",
        "coordinates": [
          51.93210315287909,
          0.01766661925148055
        ]
      }
    }
  ]
}